{
    "links": {
        "self": "http://www.neowsapp.com/rest/v1/neo/3639437?api_key=iIulBulltgU6a56xZRHN4H3l9WmuAYTsLGpBGhQ2"
    },
    "id": "3639437",
    "neo_reference_id": "3639437",
    "name": "(2013 KL6)",
    "designation": "2013 KL6",
    "nasa_jpl_url": "http://ssd.jpl.nasa.gov/sbdb.cgi?sstr=3639437",
    "absolute_magnitude_h": 24.2,
    "estimated_diameter": {
        "kilometers": {
            "estimated_diameter_min": 0.0384197891,
            "estimated_diameter_max": 0.0859092601
        },
        "meters": {
            "estimated_diameter_min": 38.4197891064,
            "estimated_diameter_max": 85.9092601232
        },
        "miles": {
            "estimated_diameter_min": 0.0238729428,
            "estimated_diameter_max": 0.0533815229
        },
        "feet": {
            "estimated_diameter_min": 126.0491808919,
            "estimated_diameter_max": 281.8545369825
        }
    },
    "is_potentially_hazardous_asteroid": false,
    "close_approach_data": [
        {
            "close_approach_date": "2010-05-23",
            "close_approach_date_full": "2010-May-23 23:30",
            "epoch_date_close_approach": 1274657400000,
            "relative_velocity": {
                "kilometers_per_second": "20.7831676518",
                "kilometers_per_hour": "74819.4035464706",
                "miles_per_hour": "46489.8677203056"
            },
            "miss_distance": {
                "astronomical": "0.3781058864",
                "lunar": "147.0831898096",
                "kilometers": "56563835.239901968",
                "miles": "35147137.4236564384"
            },
            "orbiting_body": "Earth"
        },
        {
            "close_approach_date": "2013-06-20",
            "close_approach_date_full": "2013-Jun-20 19:22",
            "epoch_date_close_approach": 1371756120000,
            "relative_velocity": {
                "kilometers_per_second": "10.5819458887",
                "kilometers_per_hour": "38095.0051992984",
                "miles_per_hour": "23670.7547584196"
            },
            "miss_distance": {
                "astronomical": "0.0345922808",
                "lunar": "13.4563972312",
                "kilometers": "5174931.526121896",
                "miles": "3215553.3431423248"
            },
            "orbiting_body": "Earth"
        }
    ],
    "orbital_data": {
        "orbit_id": "15",
        "orbit_determination_date": "2017-04-06 08:45:43",
        "first_observation_date": "2013-05-31",
        "last_observation_date": "2013-06-20",
        "data_arc_in_days": 20,
        "observations_used": 56,
        "orbit_uncertainty": "7",
        "minimum_orbit_intersection": ".031074",
        "jupiter_tisserand_invariant": "3.536",
        "epoch_osculation": "2459000.5",
        "eccentricity": ".5350632301190485",
        "semi_major_axis": "2.10744983038082",
        "inclination": "7.137471937623036",
        "ascending_node_longitude": "81.19643216171573",
        "orbital_period": "1117.465937503996",
        "perihelion_distance": ".9798309168234176",
        "perihelion_argument": "223.3900375466073",
        "aphelion_distance": "3.235068743938223",
        "perihelion_time": "2458727.217133919550",
        "mean_anomaly": "88.04011691730888",
        "mean_motion": ".3221574706823783",
        "equinox": "J2000",
        "orbit_class": {
            "orbit_class_type": "APO",
            "orbit_class_description": "Near-Earth asteroid orbits which cross the Earth’s orbit similar to that of 1862 Apollo",
            "orbit_class_range": "a (semi-major axis) > 1.0 AU; q (perihelion) < 1.017 AU"
        }
    },
    "is_sentry_object": false
}